0 COSMOS 1257
1 12327U 81022H   13281.13548140  .00000010  00000-0  17345-3 0  5494
2 12327 074.0290 073.9299 0006863 030.2372 019.0269 12.47792118484733
0 COSMOS 1257
1 12327U 81022H   13283.13868968 -.00000003  00000-0  83838-4 0  5505
2 12327 074.0293 071.2785 0006884 027.0139 017.7668 12.47792447484985
0 COSMOS 1257
1 12327U 81022H   13287.47004862 -.00000051  00000-0 -23915-3 0  5526
2 12327 074.0304 065.5458 0006960 020.2114 034.7787 12.47792674485528
0 COSMOS 1257
1 12327U 81022H   13289.48723016 -.00000022  00000-0 -45271-4 0  5537
2 12327 074.0309 062.8762 0006983 016.8864 096.3726 12.47792452485777
0 COSMOS 1257
1 12327U 81022H   13292.52409559  .00000009  00000-0  17005-3 0  5546
2 12327 074.0313 058.8575 0007040 012.2125 058.2609 12.47792272486154
0 COSMOS 1257
1 12327U 81022H   13294.52889869  .00000000  00000-0  10774-3 0  5552
2 12327 074.0314 056.2044 0007074 008.9571 064.1953 12.47792310486401
